COSMOS 2251 DEB         
1 37275U 93036BHP 17340.74554182  .00001114  00000-0  54596-3 0  9995
2 37275  73.9463 135.4534 0168896 283.7883  74.4510 14.11887099417056
